{
 "type": "FeatureCollection",
 "features": [
  {
   "type": "Feature",
   "properties": {
    "number": 1,
    "name": "Nigdi"
   },
   "geometry": {
    "type": "Polygon",
    "coordinates": [
     [
      [
       73.74,
       18.65
      ],
      [
       73.8,
       18.65
      ],
      [
       73.8,
       18.7
      ],
      [
       73.74,
       18.7
      ],
      [
       73.74,
       18.65
      ]
     ]
    ]
   }
  },
  {
   "type": "Feature",
   "properties": {
    "number": 2,
    "name": "Akurdi"
   },
   "geometry": {
    "type": "Polygon",
    "coordinates": [
     [
      [
       73.74,
       18.6
      ],
      [
       73.8,
       18.6
      ],
      [
       73.8,
       18.65
      ],
      [
       73.74,
       18.65
      ],
      [
       73.74,
       18.6
      ]
     ]
    ]
   }
  },
  {
   "type": "Feature",
   "properties": {
    "number": 3,
    "name": "Pimpri"
   },
   "geometry": {
    "type": "Polygon",
    "coordinates": [
     [
      [
       73.8,
       18.6
      ],
      [
       73.86,
       18.6
      ],
      [
       73.86,
       18.65
      ],
      [
       73.8,
       18.65
      ],
      [
       73.8,
       18.6
      ]
     ]
    ]
   }
  },
  {
   "type": "Feature",
   "properties": {
    "number": 4,
    "name": "Chinchwad"
   },
   "geometry": {
    "type": "Polygon",
    "coordinates": [
     [
      [
       73.8,
       18.65
      ],
      [
       73.86,
       18.65
      ],
      [
       73.86,
       18.7
      ],
      [
       73.8,
       18.7
      ],
      [
       73.8,
       18.65
      ]
     ]
    ]
   }
  },
  {
   "type": "Feature",
   "properties": {
    "number": 5,
    "name": "Bhosari"
   },
   "geometry": {
    "type": "Polygon",
    "coordinates": [
     [
      [
       73.86,
       18.6
      ],
      [
       73.92,
       18.6
      ],
      [
       73.92,
       18.7
      ],
      [
       73.86,
       18.7
      ],
      [
       73.86,
       18.6
      ]
     ]
    ]
   }
  }
 ]
}